ONEWEB-0656             
1 55817U 23029X   24230.49890999  .00000109  00000+0  23493-3 0  9993
2 55817  87.9191  47.4263 0002422  92.1650 267.9761 13.20771187 73568
ONEWEB-0657             
1 55818U 23029Y   24230.14141992  .00000094  00000+0  20297-3 0  9990
2 55818  87.9102  78.0885 0002441 101.1259 259.0148 13.19725511 71341
ONEWEB-0658             
1 55819U 23029Z   24229.15106158  .00000672  00000+0  16463-2 0  9996
2 55819  87.9110  78.2199 0001269  91.6256 268.5022 13.19723426 70548
ONEWEB-0660             
1 55820U 23029AA  24230.50803593  .00000014  00000+0  32716-5 0  9998
2 55820  87.8922  62.6795 0001295  73.0080 287.1192 13.14503137 72263
ONEWEB-0661             
1 55821U 23029AB  24229.24892489 -.00000036  00000+0 -13137-3 0  9990
2 55821  87.8924  62.9983 0001494  71.2874 288.8418 13.14502082 71378
ONEWEB-0662             
1 55822U 23029AC  24230.50169503 -.00000097  00000+0 -29747-3 0  9997
2 55822  87.8920  62.7556 0001359  82.7622 277.3662 13.14501754 72298
ONEWEB-0663             
1 55823U 23029AD  24230.49096308  .00000022  00000+0  22435-4 0  9992
2 55823  87.9190  47.4883 0001342  86.8994 273.2293 13.20795110 73554
ONEWEB-0664             
1 55824U 23029AE  24229.88021179  .00000059  00000+0  11209-3 0  9994
2 55824  87.9191  47.6243 0001860  74.0300 286.1038 13.20769439 72793
